{
    "links": {
        "self": "http://www.neowsapp.com/rest/v1/neo/54055037?api_key=iIulBulltgU6a56xZRHN4H3l9WmuAYTsLGpBGhQ2"
    },
    "id": "54055037",
    "neo_reference_id": "54055037",
    "name": "(2020 TF1)",
    "designation": "2020 TF1",
    "nasa_jpl_url": "http://ssd.jpl.nasa.gov/sbdb.cgi?sstr=54055037",
    "absolute_magnitude_h": 25.107,
    "estimated_diameter": {
        "kilometers": {
            "estimated_diameter_min": 0.0253020073,
            "estimated_diameter_max": 0.0565770083
        },
        "meters": {
            "estimated_diameter_min": 25.3020072946,
            "estimated_diameter_max": 56.577008278
        },
        "miles": {
            "estimated_diameter_min": 0.0157219336,
            "estimated_diameter_max": 0.0351553122
        },
        "feet": {
            "estimated_diameter_min": 83.0118376125,
            "estimated_diameter_max": 185.6201118388
        }
    },
    "is_potentially_hazardous_asteroid": false,
    "close_approach_data": [
        {
            "close_approach_date": "2020-10-25",
            "close_approach_date_full": "2020-Oct-25 07:39",
            "epoch_date_close_approach": 1603611540000,
            "relative_velocity": {
                "kilometers_per_second": "6.7158009966",
                "kilometers_per_hour": "24176.8835877477",
                "miles_per_hour": "15022.5752492869"
            },
            "miss_distance": {
                "astronomical": "0.0597820364",
                "lunar": "23.2552121596",
                "kilometers": "8943265.309702468",
                "miles": "5557087.3778833384"
            },
            "orbiting_body": "Earth"
        }
    ],
    "orbital_data": {
        "orbit_id": "5",
        "orbit_determination_date": "2020-10-17 08:34:51",
        "first_observation_date": "2020-10-07",
        "last_observation_date": "2020-10-16",
        "data_arc_in_days": 9,
        "observations_used": 35,
        "orbit_uncertainty": "8",
        "minimum_orbit_intersection": ".0543704",
        "jupiter_tisserand_invariant": "4.179",
        "epoch_osculation": "2459130.5",
        "eccentricity": ".3999942919044372",
        "semi_major_axis": "1.652772437411794",
        "inclination": "3.900507803917064",
        "ascending_node_longitude": "352.0086177450526",
        "orbital_period": "776.1006003890245",
        "perihelion_distance": ".9916728966300929",
        "perihelion_argument": "69.63957060445522",
        "aphelion_distance": "2.313871978193496",
        "perihelion_time": "2459172.346771866245",
        "mean_anomaly": "340.5890655614789",
        "mean_motion": ".4638573914509899",
        "equinox": "J2000",
        "orbit_class": {
            "orbit_class_type": "APO",
            "orbit_class_description": "Near-Earth asteroid orbits which cross the Earth’s orbit similar to that of 1862 Apollo",
            "orbit_class_range": "a (semi-major axis) > 1.0 AU; q (perihelion) < 1.017 AU"
        }
    },
    "is_sentry_object": false
}